{
"type": "FeatureCollection",
"name": "Buffer_20km_AI_Hidromanta",
"crs": { "type": "name", "properties": { "name": "urn:ogc:def:crs:OGC:1.3:CRS84" } },
"features": [
{ "type": "Feature", "properties": { "id": "ID_00000", "Name": "Área Modificada de la Concesión de Generación - Central Hidroeléctrica Manta", "description": "<html xmlns:fo=\"http://www.w3.org/1999/XSL/Format\" xmlns:msxsl=\"urn:schemas-microsoft-com:xslt\">\n\n<head>\n\n<META http-equiv=\"Content-Type\" content=\"text/html\">\n\n<meta http-equiv=\"content-type\" content=\"text/html; charset=UTF-8\">\n\n</head>\n\n<body style=\"margin:0px 0px 0px 0px;overflow:auto;background:#FFFFFF;\">\n\n<table style=\"font-family:Arial,Verdana,Times;font-size:12px;text-align:left;width:100%;border-collapse:collapse;padding:3px 3px 3px 3px\">\n\n<tr style=\"text-align:center;font-weight:bold;background:#9CBCE2\">\n\n<td>Área Modificada de la Concesión de Generación - Central Hidroeléctrica Manta</td>\n\n</tr>\n\n<tr>\n\n<td>\n\n<table style=\"font-family:Arial,Verdana,Times;font-size:12px;text-align:left;width:100%;border-spacing:0px; padding:3px 3px 3px 3px\">\n\n<tr>\n\n<td>Nombre</td>\n\n<td>Área Modificada de la Concesión de Generación - Central Hidroeléctrica Manta</td>\n\n</tr>\n\n<tr bgcolor=\"#D4E4F3\">\n\n<td>Area_ha</td>\n\n<td>136.404853</td>\n\n</tr>\n\n</table>\n\n</td>\n\n</tr>\n\n</table>\n\n</body>\n\n</html>", "timestamp": null, "begin": null, "end": null, "altitudeMode": null, "tessellate": -1, "extrude": 0, "visibility": -1, "drawOrder": null, "icon": null, "snippet": "" }, "geometry": { "type": "MultiPolygon", "coordinates": [ [ [ [ -78.051608924534861, -8.501601298627294 ], [ -78.046604273662084, -8.491960056818503 ], [ -78.002027365467072, -8.448050973319104 ], [ -77.946063972688478, -8.420065137139149 ], [ -77.884191663996504, -8.410741737806971 ], [ -77.883057048792665, -8.410750258519959 ], [ -77.816051625331838, -8.422843728434938 ], [ -77.756986165961663, -8.456714811930166 ], [ -77.712706326100388, -8.508437868390592 ], [ -77.712006924313286, -8.509612708178476 ], [ -77.700770295270829, -8.536128334814723 ], [ -77.699544946860286, -8.535612351642197 ], [ -77.69854348288159, -8.537990611941852 ], [ -77.696962823504933, -8.545113013350504 ], [ -77.690825064209832, -8.559596586069443 ], [ -77.686746448537932, -8.591147677447809 ], [ -77.683014102307951, -8.607965512105068 ], [ -77.683869200707178, -8.613949161702322 ], [ -77.683875238728518, -8.614745727187779 ], [ -77.68398291791533, -8.614744910972114 ], [ -77.693154201503944, -8.678922024858645 ], [ -77.707016411490258, -8.704159816282706 ], [ -77.707673191490073, -8.707355074862798 ], [ -77.713614284922556, -8.7161720245591 ], [ -77.727661373881148, -8.741746409999948 ], [ -77.735634257115805, -8.751556623317503 ], [ -77.739497712365718, -8.758998226789874 ], [ -77.748339497846843, -8.767706385872549 ], [ -77.751008128800393, -8.771666799076414 ], [ -77.755680375592135, -8.776314311837986 ], [ -77.761857984518898, -8.78102056689951 ], [ -77.784077875148142, -8.802904647079025 ], [ -77.840043604026206, -8.830886817249763 ], [ -77.901917022908165, -8.840205867210599 ], [ -77.90777925909174, -8.840161417957106 ], [ -77.967273094779273, -8.830634353137393 ], [ -78.021229820745063, -8.803821050991877 ], [ -78.064752484456207, -8.762155007354616 ], [ -78.093891097945757, -8.709417708857242 ], [ -78.106001127013769, -8.650395436409747 ], [ -78.099983501313488, -8.590444876530579 ], [ -78.098146596029096, -8.583288196889146 ], [ -78.071546059081527, -8.523143000202445 ], [ -78.051608924534861, -8.501601298627294 ] ] ] ] } }
]
}
